CCSDS_OMM_VERS = 2.0
CREATION_DATE  = 
ORIGINATOR     = 

OBJECT_NAME    = SL-3 R/B
OBJECT_ID      = 1982-039B
CENTER_NAME    = EARTH
REF_FRAME      = TEME
TIME_SYSTEM    = UTC
MEAN_ELEMENT_THEORY = SGP/SGP4

EPOCH          = 2025-11-18T21:46:18.395904
MEAN_MOTION    = 15.09335260
ECCENTRICITY   = .00316737
INCLINATION    = 81.1769
RA_OF_ASC_NODE = 343.5057
ARG_OF_PERICENTER = 331.2828
MEAN_ANOMALY   = 28.6651

EPHEMERIS_TYPE = 0
CLASSIFICATION_TYPE = U
NORAD_CAT_ID   = 13154
ELEMENT_SET_NO = 999
REV_AT_EPOCH   = 36492
BSTAR          = .17072088E-3
MEAN_MOTION_DOT = .2777E-4
MEAN_MOTION_DDOT = 0

CCSDS_OMM_VERS = 2.0
CREATION_DATE  = 
ORIGINATOR     = 

OBJECT_NAME    = SL-3 R/B
OBJECT_ID      = 1982-079B
CENTER_NAME    = EARTH
REF_FRAME      = TEME
TIME_SYSTEM    = UTC
MEAN_ELEMENT_THEORY = SGP/SGP4

EPOCH          = 2025-11-18T23:15:32.777568
MEAN_MOTION    = 15.23227950
ECCENTRICITY   = .00256898
INCLINATION    = 81.1454
RA_OF_ASC_NODE = 323.6763
ARG_OF_PERICENTER = 176.6778
MEAN_ANOMALY   = 183.4630

EPHEMERIS_TYPE = 0
CLASSIFICATION_TYPE = U
NORAD_CAT_ID   = 13403
ELEMENT_SET_NO = 999
REV_AT_EPOCH   = 36083
BSTAR          = .23631998E-3
MEAN_MOTION_DOT = .567E-4
MEAN_MOTION_DDOT = 0

CCSDS_OMM_VERS = 2.0
CREATION_DATE  = 
ORIGINATOR     = 

OBJECT_NAME    = SL-14 R/B
OBJECT_ID      = 1982-092B
CENTER_NAME    = EARTH
REF_FRAME      = TEME
TIME_SYSTEM    = UTC
MEAN_ELEMENT_THEORY = SGP/SGP4

EPOCH          = 2025-11-18T18:41:32.977824
MEAN_MOTION    = 14.86518821
ECCENTRICITY   = .00192281
INCLINATION    = 82.5685
RA_OF_ASC_NODE = 245.1179
ARG_OF_PERICENTER = 312.7110
MEAN_ANOMALY   = 77.0583

EPHEMERIS_TYPE = 0
CLASSIFICATION_TYPE = U
NORAD_CAT_ID   = 13553
ELEMENT_SET_NO = 999
REV_AT_EPOCH   = 31245
BSTAR          = .88491511E-4
MEAN_MOTION_DOT = .809E-5
MEAN_MOTION_DDOT = 0

CCSDS_OMM_VERS = 2.0
CREATION_DATE  = 
ORIGINATOR     = 

OBJECT_NAME    = SL-3 R/B
OBJECT_ID      = 1983-010B
CENTER_NAME    = EARTH
REF_FRAME      = TEME
TIME_SYSTEM    = UTC
MEAN_ELEMENT_THEORY = SGP/SGP4

EPOCH          = 2025-11-18T21:46:57.161856
MEAN_MOTION    = 15.42617739
ECCENTRICITY   = .00182252
INCLINATION    = 81.1019
RA_OF_ASC_NODE = 137.6896
ARG_OF_PERICENTER = 72.6675
MEAN_ANOMALY   = 287.6559

EPHEMERIS_TYPE = 0
CLASSIFICATION_TYPE = U
NORAD_CAT_ID   = 13819
ELEMENT_SET_NO = 999
REV_AT_EPOCH   = 34084
BSTAR          = .3188495E-3
MEAN_MOTION_DOT = .13992E-3
MEAN_MOTION_DDOT = 0

CCSDS_OMM_VERS = 2.0
CREATION_DATE  = 
ORIGINATOR     = 

OBJECT_NAME    = SL-3 R/B
OBJECT_ID      = 1983-075B
CENTER_NAME    = EARTH
REF_FRAME      = TEME
TIME_SYSTEM    = UTC
MEAN_ELEMENT_THEORY = SGP/SGP4

EPOCH          = 2025-11-18T22:34:19.949088
MEAN_MOTION    = 15.35486124
ECCENTRICITY   = .00209144
INCLINATION    = 97.6096
RA_OF_ASC_NODE = 318.6382
ARG_OF_PERICENTER = 265.2882
MEAN_ANOMALY   = 94.5972

EPHEMERIS_TYPE = 0
CLASSIFICATION_TYPE = U
NORAD_CAT_ID   = 14208
ELEMENT_SET_NO = 999
REV_AT_EPOCH   = 31314
BSTAR          = .33117154E-3
MEAN_MOTION_DOT = .11418E-3
MEAN_MOTION_DDOT = 0

CCSDS_OMM_VERS = 2.0
CREATION_DATE  = 
ORIGINATOR     = 

OBJECT_NAME    = COSMOS 1536
OBJECT_ID      = 1984-013A
CENTER_NAME    = EARTH
REF_FRAME      = TEME
TIME_SYSTEM    = UTC
MEAN_ELEMENT_THEORY = SGP/SGP4

EPOCH          = 2025-11-18T16:23:38.893920
MEAN_MOTION    = 15.22152377
ECCENTRICITY   = .00139474
INCLINATION    = 82.5476
RA_OF_ASC_NODE = 218.0112
ARG_OF_PERICENTER = 320.1430
MEAN_ANOMALY   = 39.8781

EPHEMERIS_TYPE = 0
CLASSIFICATION_TYPE = U
NORAD_CAT_ID   = 14699
ELEMENT_SET_NO = 999
REV_AT_EPOCH   = 25572
BSTAR          = .33222691E-3
MEAN_MOTION_DOT = .7669E-4
MEAN_MOTION_DDOT = 0

CCSDS_OMM_VERS = 2.0
CREATION_DATE  = 
ORIGINATOR     = 

OBJECT_NAME    = SL-14 R/B
OBJECT_ID      = 1984-027B
CENTER_NAME    = EARTH
REF_FRAME      = TEME
TIME_SYSTEM    = UTC
MEAN_ELEMENT_THEORY = SGP/SGP4

EPOCH          = 2025-11-18T12:20:17.719008
MEAN_MOTION    = 14.85838628
ECCENTRICITY   = .00175527
INCLINATION    = 82.5420
RA_OF_ASC_NODE = 349.2765
ARG_OF_PERICENTER = 346.7675
MEAN_ANOMALY   = 13.3079

EPHEMERIS_TYPE = 0
CLASSIFICATION_TYPE = U
NORAD_CAT_ID   = 14820
ELEMENT_SET_NO = 999
REV_AT_EPOCH   = 23112
BSTAR          = .72796414E-4
MEAN_MOTION_DOT = .659E-5
MEAN_MOTION_DDOT = 0

CCSDS_OMM_VERS = 2.0
CREATION_DATE  = 
ORIGINATOR     = 

OBJECT_NAME    = SL-8 R/B
OBJECT_ID      = 1985-006B
CENTER_NAME    = EARTH
REF_FRAME      = TEME
TIME_SYSTEM    = UTC
MEAN_ELEMENT_THEORY = SGP/SGP4

EPOCH          = 2025-11-18T19:58:03.650016
MEAN_MOTION    = 14.37699928
ECCENTRICITY   = .00177267
INCLINATION    = 74.0442
RA_OF_ASC_NODE = 105.1190
ARG_OF_PERICENTER = 44.6726
MEAN_ANOMALY   = 105.5202

EPHEMERIS_TYPE = 0
CLASSIFICATION_TYPE = U
NORAD_CAT_ID   = 15483
ELEMENT_SET_NO = 999
REV_AT_EPOCH   = 13809
BSTAR          = .12197304E-3
MEAN_MOTION_DOT = .341E-5
MEAN_MOTION_DDOT = 0

CCSDS_OMM_VERS = 2.0
CREATION_DATE  = 
ORIGINATOR     = 

OBJECT_NAME    = SL-12 R/B(2)
OBJECT_ID      = 1985-042D
CENTER_NAME    = EARTH
REF_FRAME      = TEME
TIME_SYSTEM    = UTC
MEAN_ELEMENT_THEORY = SGP/SGP4

EPOCH          = 2025-11-18T23:04:08.829120
MEAN_MOTION    = 14.21941216
ECCENTRICITY   = .00374639
INCLINATION    = 71.1079
RA_OF_ASC_NODE = 321.6559
ARG_OF_PERICENTER = 296.2775
MEAN_ANOMALY   = 87.7676

EPHEMERIS_TYPE = 0
CLASSIFICATION_TYPE = U
NORAD_CAT_ID   = 15772
ELEMENT_SET_NO = 999
REV_AT_EPOCH   = 9865
BSTAR          = .11450729E-3
MEAN_MOTION_DOT = .207E-5
MEAN_MOTION_DDOT = 0

CCSDS_OMM_VERS = 2.0
CREATION_DATE  = 
ORIGINATOR     = 

OBJECT_NAME    = SL-14 R/B
OBJECT_ID      = 1985-069B
CENTER_NAME    = EARTH
REF_FRAME      = TEME
TIME_SYSTEM    = UTC
MEAN_ELEMENT_THEORY = SGP/SGP4

EPOCH          = 2025-11-18T22:28:34.237632
MEAN_MOTION    = 14.86283001
ECCENTRICITY   = .0018386
INCLINATION    = 82.5245
RA_OF_ASC_NODE = 129.0813
ARG_OF_PERICENTER = 195.0616
MEAN_ANOMALY   = 165.0056

EPHEMERIS_TYPE = 0
CLASSIFICATION_TYPE = U
NORAD_CAT_ID   = 15945
ELEMENT_SET_NO = 999
REV_AT_EPOCH   = 15638
BSTAR          = .7785417E-4
MEAN_MOTION_DOT = .711E-5
MEAN_MOTION_DDOT = 0

CCSDS_OMM_VERS = 2.0
CREATION_DATE  = 
ORIGINATOR     = 

OBJECT_NAME    = SL-16 R/B
OBJECT_ID      = 1985-097B
CENTER_NAME    = EARTH
REF_FRAME      = TEME
TIME_SYSTEM    = UTC
MEAN_ELEMENT_THEORY = SGP/SGP4

EPOCH          = 2025-11-18T22:24:57.707136
MEAN_MOTION    = 14.16578685
ECCENTRICITY   = .00054904
INCLINATION    = 71.0044
RA_OF_ASC_NODE = 13.7217
ARG_OF_PERICENTER = 54.9153
MEAN_ANOMALY   = 117.7428

EPHEMERIS_TYPE = 0
CLASSIFICATION_TYPE = U
NORAD_CAT_ID   = 16182
ELEMENT_SET_NO = 999
REV_AT_EPOCH   = 7154
BSTAR          = .17581638E-3
MEAN_MOTION_DOT = .303E-5
MEAN_MOTION_DDOT = 0

CCSDS_OMM_VERS = 2.0
CREATION_DATE  = 
ORIGINATOR     = 

OBJECT_NAME    = SL-14 R/B
OBJECT_ID      = 1986-006B
CENTER_NAME    = EARTH
REF_FRAME      = TEME
TIME_SYSTEM    = UTC
MEAN_ELEMENT_THEORY = SGP/SGP4

EPOCH          = 2025-11-18T20:57:16.743744
MEAN_MOTION    = 14.86624916
ECCENTRICITY   = .00752167
INCLINATION    = 82.5283
RA_OF_ASC_NODE = 4.0080
ARG_OF_PERICENTER = 280.2537
MEAN_ANOMALY   = 79.0205

EPHEMERIS_TYPE = 0
CLASSIFICATION_TYPE = U
NORAD_CAT_ID   = 16496
ELEMENT_SET_NO = 999
REV_AT_EPOCH   = 13274
BSTAR          = .8863735E-4
MEAN_MOTION_DOT = .853E-5
MEAN_MOTION_DDOT = 0

