SL-3 R/B                
1 13154U 82039B   25322.90715736  .00002777  00000+0  17072-3 0  9990
2 13154  81.1769 343.5057 0031673 331.2828  28.6651 15.09335260364928
SL-3 R/B                
1 13403U 82079B   25322.96912937  .00005670  00000+0  23632-3 0  9993
2 13403  81.1454 323.6763 0025689 176.6778 183.4630 15.23227950360839
SL-14 R/B               
1 13553U 82092B   25322.77885391  .00000809  00000+0  88492-4 0  9991
2 13553  82.5685 245.1179 0019228 312.7110  77.0583 14.86518821312458
SL-3 R/B                
1 13819U 83010B   25322.90760604  .00013992  00000+0  31885-3 0  9991
2 13819  81.1019 137.6896 0018225  72.6675 287.6559 15.42617739340841
SL-3 R/B                
1 14208U 83075B   25322.94050867  .00011418  00000+0  33117-3 0  9993
2 14208  97.6096 318.6382 0020914 265.2882  94.5972 15.35486124313141
COSMOS 1536             
1 14699U 84013A   25322.68308905  .00007669  00000+0  33223-3 0  9991
2 14699  82.5476 218.0112 0013947 320.1430  39.8781 15.22152377255727
SL-14 R/B               
1 14820U 84027B   25322.51409397  .00000659  00000+0  72796-4 0  9992
2 14820  82.5420 349.2765 0017552 346.7675  13.3079 14.85838628231127
SL-8 R/B                
1 15483U 85006B   25322.83198669  .00000341  00000+0  12197-3 0  9994
2 15483  74.0442 105.1190 0017726  44.6726 105.5202 14.37699928138097
SL-12 R/B(2)            
1 15772U 85042D   25322.96121330  .00000207  00000+0  11451-3 0  9993
2 15772  71.1079 321.6559 0037463 296.2775  87.7676 14.21941216 98651
SL-14 R/B               
1 15945U 85069B   25322.93650738  .00000711  00000+0  77854-4 0  9990
2 15945  82.5245 129.0813 0018386 195.0616 165.0056 14.86283001156389
SL-16 R/B               
1 16182U 85097B   25322.93400124  .00000303  00000+0  17582-3 0  9995
2 16182  71.0044  13.7217 0005490  54.9153 117.7428 14.16578685 71540
SL-14 R/B               
1 16496U 86006B   25322.87311046  .00000853  00000+0  88637-4 0  9991
2 16496  82.5283   4.0080 0075216 280.2537  79.0205 14.86624916132743
